{"type": "FeatureCollection", "features": [ {"type": "Feature", "properties": {"norad_id": 44804, "name": "CARTOSAT-3", "group": "resource", "lat": 31.38694370160494, "lon": -115.84609516188708, "alt_km": 509.2104350152449, "timestamp": "2025-12-26T03:50:11.745514+00:00", "meta": {"OBJECT_NAME": "CARTOSAT-3", "OBJECT_ID": "2019-081A", "EPOCH": "2025-12-25T20:51:52.384320", "MEAN_MOTION": 15.19258464, "ECCENTRICITY": 0.0013646, "INCLINATION": 97.456, "RA_OF_ASC_NODE": 59.2844, "ARG_OF_PERICENTER": 41.7622, "MEAN_ANOMALY": 318.4652, "EPHEMERIS_TYPE": 0, "CLASSIFICATION_TYPE": "U", "NORAD_CAT_ID": 44804, "ELEMENT_SET_NO": 999, "REV_AT_EPOCH": 33715, "BSTAR": 0.00013815, "MEAN_MOTION_DOT": 2.85e-05, "MEAN_MOTION_DDOT": 0}, "tle": {"line1": "1 44804U 19081A   25359.86935630  .00002850  00000+0  13815-3 0  9998", "line2": "2 44804  97.4560  59.2844 0013646  41.7622 318.4652 15.19258464337150"}}, "geometry": {"type": "Point", "coordinates": [-115.84609516188708, 31.38694370160494]}}, {"type": "Feature", "properties": {"norad_id": 44819, "name": "GAOFEN-12 01", "group": "resource", "lat": -12.772753477487031, "lon": -175.69504789726395, "alt_km": 630.208898520611, "timestamp": "2025-12-26T03:50:11.745525+00:00", "meta": {"OBJECT_NAME": "GAOFEN-12 01", "OBJECT_ID": "2019-082A", "EPOCH": "2025-12-25T20:28:52.306752", "MEAN_MOTION": 14.80672204, "ECCENTRICITY": 0.0002272, "INCLINATION": 97.8125, "RA_OF_ASC_NODE": 5.7901, "ARG_OF_PERICENTER": 176.3479, "MEAN_ANOMALY": 183.7751, "EPHEMERIS_TYPE": 0, "CLASSIFICATION_TYPE": "U", "NORAD_CAT_ID": 44819, "ELEMENT_SET_NO": 999, "REV_AT_EPOCH": 32844, "BSTAR": 7.377e-05, "MEAN_MOTION_DOT": 5.16e-06, "MEAN_MOTION_DDOT": 0}, "tle": {"line1": "1 44819U 19082A   25359.85338318  .00000516  00000+0  73770-4 0  9998", "line2": "2 44819  97.8125   5.7901 0002272 176.3479 183.7751 14.80672204328449"}}, "geometry": {"type": "Point", "coordinates": [-175.69504789726395, -12.772753477487031]}}, {"type": "Feature", "properties": {"norad_id": 44873, "name": "CSG-1", "group": "resource", "lat": 15.379186074707878, "lon": 179.09843063662012, "alt_km": 622.9514630301974, "timestamp": "2025-12-26T03:50:11.745535+00:00", "meta": {"OBJECT_NAME": "CSG-1", "OBJECT_ID": "2019-092A", "EPOCH": "2025-12-25T19:39:55.853280", "MEAN_MOTION": 14.8216169, "ECCENTRICITY": 0.0001458, "INCLINATION": 97.8806, "RA_OF_ASC_NODE": 180.9466, "ARG_OF_PERICENTER": 85.1387, "MEAN_ANOMALY": 274.9993, "EPHEMERIS_TYPE": 0, "CLASSIFICATION_TYPE": "U", "NORAD_CAT_ID": 44873, "ELEMENT_SET_NO": 999, "REV_AT_EPOCH": 32579, "BSTAR": 8.6252e-05, "MEAN_MOTION_DOT": 6.35e-06, "MEAN_MOTION_DDOT": 0}, "tle": {"line1": "1 44873U 19092A   25359.81939645  .00000635  00000+0  86252-4 0  9996", "line2": "2 44873  97.8806 180.9466 0001458  85.1387 274.9993 14.82161690325797"}}, "geometry": {"type": "Point", "coordinates": [179.09843063662012, 15.379186074707878]}}, {"type": "Feature", "properties": {"norad_id": 46277, "name": "NEMO-HD", "group": "resource", "lat": 71.99085227315257, "lon": -97.9648349787982, "alt_km": 437.0251773526443, "timestamp": "2025-12-26T03:50:11.745546+00:00", "meta": {"OBJECT_NAME": "NEMO-HD", "OBJECT_ID": "2020-061F", "EPOCH": "2025-12-25T19:34:54.259392", "MEAN_MOTION": 15.40593759, "ECCENTRICITY": 0.0001029, "INCLINATION": 97.2188, "RA_OF_ASC_NODE": 58.7477, "ARG_OF_PERICENTER": 52.724, "MEAN_ANOMALY": 307.41, "EPHEMERIS_TYPE": 0, "CLASSIFICATION_TYPE": "U", "NORAD_CAT_ID": 46277, "ELEMENT_SET_NO": 999, "REV_AT_EPOCH": 29525, "BSTAR": 0.00026945, "MEAN_MOTION_DOT": 0.00010883, "MEAN_MOTION_DDOT": 0}, "tle": {"line1": "1 46277U 20061F   25359.81590578  .00010883  00000+0  26945-3 0  9990", "line2": "2 46277  97.2188  58.7477 0001029  52.7240 307.4100 15.40593759295259"}}, "geometry": {"type": "Point", "coordinates": [-97.9648349787982, 71.99085227315257]}}, {"type": "Feature", "properties": {"norad_id": 46984, "name": "SENTINEL-6A", "group": "resource", "lat": 50.74955269258887, "lon": 167.40428684578467, "alt_km": 1337.2526522846902, "timestamp": "2025-12-26T03:50:11.745556+00:00", "meta": {"OBJECT_NAME": "SENTINEL-6A", "OBJECT_ID": "2020-086A", "EPOCH": "2025-12-25T18:09:57.449088", "MEAN_MOTION": 12.80930775, "ECCENTRICITY": 0.0007755, "INCLINATION": 66.0401, "RA_OF_ASC_NODE": 135.271, "ARG_OF_PERICENTER": 269.4393, "MEAN_ANOMALY": 90.5733, "EPHEMERIS_TYPE": 0, "CLASSIFICATION_TYPE": "U", "NORAD_CAT_ID": 46984, "ELEMENT_SET_NO": 999, "REV_AT_EPOCH": 23811, "BSTAR": 4.7279e-05, "MEAN_MOTION_DOT": -5e-07, "MEAN_MOTION_DDOT": 0}, "tle": {"line1": "1 46984U 20086A   25359.75691492 -.00000050  00000+0  47279-4 0  9992", "line2": "2 46984  66.0401 135.2710 0007755 269.4393  90.5733 12.80930775238113"}}, "geometry": {"type": "Point", "coordinates": [167.40428684578467, 50.74955269258887]}}, {"type": "Feature", "properties": {"norad_id": 48079, "name": "GAOFEN-12 02", "group": "resource", "lat": -25.00267800822223, "lon": 170.34816413868302, "alt_km": 634.4018381435226, "timestamp": "2025-12-26T03:50:11.745566+00:00", "meta": {"OBJECT_NAME": "GAOFEN-12 02", "OBJECT_ID": "2021-026A", "EPOCH": "2025-12-25T22:02:51.607968", "MEAN_MOTION": 14.80690331, "ECCENTRICITY": 0.0003538, "INCLINATION": 97.9858, "RA_OF_ASC_NODE": 353.8619, "ARG_OF_PERICENTER": 74.6591, "MEAN_ANOMALY": 285.5012, "EPHEMERIS_TYPE": 0, "CLASSIFICATION_TYPE": "U", "NORAD_CAT_ID": 48079, "ELEMENT_SET_NO": 999, "REV_AT_EPOCH": 25612, "BSTAR": 7.7658e-05, "MEAN_MOTION_DOT": 5.44e-06, "MEAN_MOTION_DDOT": 0}, "tle": {"line1": "1 48079U 21026A   25359.91865287  .00000544  00000+0  77658-4 0  9998", "line2": "2 48079  97.9858 353.8619 0003538  74.6591 285.5012 14.80690331256126"}}, "geometry": {"type": "Point", "coordinates": [170.34816413868302, -25.00267800822223]}}, {"type": "Feature", "properties": {"norad_id": 48268, "name": "PLEIADES NEO 3", "group": "resource", "lat": -39.91058123155039, "lon": 79.07294585712106, "alt_km": 631.161599334846, "timestamp": "2025-12-26T03:50:11.745576+00:00", "meta": {"OBJECT_NAME": "PLEIADES NEO 3", "OBJECT_ID": "2021-034A", "EPOCH": "2025-12-25T19:54:52.451136", "MEAN_MOTION": 14.81672068, "ECCENTRICITY": 0.0001329, "INCLINATION": 97.8942, "RA_OF_ASC_NODE": 72.083, "ARG_OF_PERICENTER": 89.1739, "MEAN_ANOMALY": 270.9626, "EPHEMERIS_TYPE": 0, "CLASSIFICATION_TYPE": "U", "NORAD_CAT_ID": 48268, "ELEMENT_SET_NO": 999, "REV_AT_EPOCH": 25198, "BSTAR": 2.8077e-05, "MEAN_MOTION_DOT": 1.69e-06, "MEAN_MOTION_DDOT": 0}, "tle": {"line1": "1 48268U 21034A   25359.82977374  .00000169  00000+0  28077-4 0  9992", "line2": "2 48268  97.8942  72.0830 0001329  89.1739 270.9626 14.81672068251981"}}, "geometry": {"type": "Point", "coordinates": [79.07294585712106, -39.91058123155039]}}, {"type": "Feature", "properties": {"norad_id": 49070, "name": "PLEIADES NEO 4", "group": "resource", "lat": 39.64065906176974, "lon": -100.99496267963978, "alt_km": 620.4506695809068, "timestamp": "2025-12-26T03:50:11.745588+00:00", "meta": {"OBJECT_NAME": "PLEIADES NEO 4", "OBJECT_ID": "2021-073E", "EPOCH": "2025-12-25T20:43:28.795872", "MEAN_MOTION": 14.81671565, "ECCENTRICITY": 0.0001355, "INCLINATION": 97.8943, "RA_OF_ASC_NODE": 72.1121, "ARG_OF_PERICENTER": 88.195, "MEAN_ANOMALY": 271.9418, "EPHEMERIS_TYPE": 0, "CLASSIFICATION_TYPE": "U", "NORAD_CAT_ID": 49070, "ELEMENT_SET_NO": 999, "REV_AT_EPOCH": 23570, "BSTAR": -8.1951e-05, "MEAN_MOTION_DOT": -6.97e-06, "MEAN_MOTION_DDOT": 0}, "tle": {"line1": "1 49070U 21073E   25359.86352773 -.00000697  00000+0 -81951-4 0  9999", "line2": "2 49070  97.8943  72.1121 0001355  88.1950 271.9418 14.81671565235704"}}, "geometry": {"type": "Point", "coordinates": [-100.99496267963978, 39.64065906176974]}}, {"type": "Feature", "properties": {"norad_id": 49260, "name": "LANDSAT 9", "group": "resource", "lat": 50.75160961362143, "lon": 57.89957085978841, "alt_km": 697.2451366285177, "timestamp": "2025-12-26T03:50:11.745599+00:00", "meta": {"OBJECT_NAME": "LANDSAT 9", "OBJECT_ID": "2021-088A", "EPOCH": "2025-12-25T19:21:38.918880", "MEAN_MOTION": 14.57111045, "ECCENTRICITY": 0.0001112, "INCLINATION": 98.2077, "RA_OF_ASC_NODE": 67.7273, "ARG_OF_PERICENTER": 93.391, "MEAN_ANOMALY": 266.7416, "EPHEMERIS_TYPE": 0, "CLASSIFICATION_TYPE": "U", "NORAD_CAT_ID": 49260, "ELEMENT_SET_NO": 999, "REV_AT_EPOCH": 22575, "BSTAR": 0.00011045, "MEAN_MOTION_DOT": 4.52e-06, "MEAN_MOTION_DDOT": 0}, "tle": {"line1": "1 49260U 21088A   25359.80670045  .00000452  00000+0  11045-3 0  9998", "line2": "2 49260  98.2077  67.7273 0001112  93.3910 266.7416 14.57111045225750"}}, "geometry": {"type": "Point", "coordinates": [57.89957085978841, 50.75160961362143]}}, {"type": "Feature", "properties": {"norad_id": 51444, "name": "CSG-2", "group": "resource", "lat": -15.60214920800533, "lon": -0.9360662157457589, "alt_km": 627.7598063872392, "timestamp": "2025-12-26T03:50:11.745610+00:00", "meta": {"OBJECT_NAME": "CSG-2", "OBJECT_ID": "2022-008A", "EPOCH": "2025-12-25T20:28:32.820960", "MEAN_MOTION": 14.82156231, "ECCENTRICITY": 0.0001442, "INCLINATION": 97.8805, "RA_OF_ASC_NODE": 180.9786, "ARG_OF_PERICENTER": 81.7762, "MEAN_ANOMALY": 278.3614, "EPHEMERIS_TYPE": 0, "CLASSIFICATION_TYPE": "U", "NORAD_CAT_ID": 51444, "ELEMENT_SET_NO": 999, "REV_AT_EPOCH": 21091, "BSTAR": 6.9549e-05, "MEAN_MOTION_DOT": 5.02e-06, "MEAN_MOTION_DDOT": 0}, "tle": {"line1": "1 51444U 22008A   25359.85315765  .00000502  00000+0  69549-4 0  9997", "line2": "2 51444  97.8805 180.9786 0001442  81.7762 278.3614 14.82156231210915"}}, "geometry": {"type": "Point", "coordinates": [-0.9360662157457589, -15.60214920800533]}}]}